EUTELSAT 8 WEST B       
1 40875U 15039B   25333.71912166 -.00000044  00000+0  00000+0 0  9998
2 40875   0.0693  12.7858 0004178 239.5643  67.4012  1.00271734 37653
EUTELSAT 9B             
1 41310U 16005A   25333.79386257  .00000083  00000+0  00000+0 0  9993
2 41310   0.0557  73.1687 0004649 188.7827 101.7707  1.00270505 36118
EUTELSAT 65 WEST A      
1 41382U 16014A   25333.77912913 -.00000255  00000+0  00000+0 0  9996
2 41382   0.0666  35.9258 0002568 217.4658  30.8173  1.00272605 35535
EUTELSAT 172B           
1 42741U 17029B   25333.60410567  .00000016  00000+0  00000+0 0  9997
2 42741   0.0332 156.5325 0000047 248.7150  52.9821  1.00270852 31739
EUTELSAT 7C             
1 44334U 19034B   25332.65203898  .00000069  00000+0  00000+0 0  9994
2 44334   0.0777 186.9483 0003089  43.1815  79.4351  1.00269308  4824
EUTELSAT KONNECT        
1 45027U 20005B   25333.79342921  .00000070  00000+0  00000+0 0  9993
2 45027   0.0664  99.1277 0001584 190.9242  71.7135  1.00268896 22329
EUTELSAT QUANTUM        
1 49056U 21069B   25333.80148926  .00000147  00000+0  00000+0 0  9996
2 49056   0.0330  56.4539 0003404 205.4681 143.2642  1.00272065 15923
EUTELSAT KONNECT VHTS   
1 53765U 22110A   25333.15046973  .00000038  00000+0  00000+0 0  9992
2 53765   0.0571 106.9647 0002663 115.3474 262.8626  1.00268613  4829
